<?xml version="1.0" encoding="UTF-8"?>
<kml xmlns="http://www.opengis.net/kml/2.2">
  <Document>
    <name>Dolina Chocholowska</name>
    <Placemark><name>Siwa Polana</name><Point><coordinates>19.951700,49.299200,0</coordinates></Point></Placemark>
    <Placemark><name>Polana Chocholowska</name><Point><coordinates>20.016950,49.352420,0</coordinates></Point></Placemark>
    <Placemark><name>Szlak</name><LineString><coordinates>
      19.951700,49.299200,890.0
      19.951924,49.299513,896.7
      19.952138,49.299825,903.4
      19.952341,49.300134,910.2
      19.952534,49.300441,916.9
      19.952717,49.300744,923.6
      19.952891,49.301041,930.3
      19.953055,49.301332,937.0
      19.953210,49.301617,943.7
      19.953356,49.301893,950.4
      19.953494,49.302162,957.1
      19.953624,49.302421,963.8
      19.953746,49.302670,970.5
      19.953862,49.302908,977.1
      19.953971,49.303136,983.8
      19.954075,49.303352,990.5
      19.954173,49.303557,997.1
      19.954267,49.303750,1003.7
      19.954358,49.303930,1010.3
      19.954445,49.304099,1016.9
      19.954529,49.304256,1023.5
      19.954612,49.304400,1030.1
      19.954694,49.304533,1036.6
      19.954776,49.304655,1043.2
      19.954858,49.304765,1049.7
      19.954941,49.304866,1056.2
      19.955026,49.304956,1062.7
      19.955114,49.305036,1069.1
      19.955205,49.305109,1075.6
      19.955300,49.305173,1082.0
      19.955400,49.305230,1088.4
      19.955505,49.305281,1094.8
      19.955616,49.305327,1101.2
      19.955733,49.305369,1107.5
      19.955858,49.305407,1113.8
      19.955990,49.305444,1120.1
      19.956130,49.305479,1126.3
      19.956279,49.305514,1132.6
      19.956436,49.305549,1138.8
      19.956603,49.305587,1145.0
      19.956779,49.305628,1151.1
      19.956965,49.305673,1157.3
      19.957161,49.305722,1163.4
      19.957367,49.305778,1169.4
      19.957583,49.305841,1175.4
      19.957810,49.305911,1181.5
      19.958047,49.305989,1187.4
      19.958294,49.306077,1193.4
      19.958552,49.306174,1199.3
      19.958819,49.306282,1205.1
      19.959097,49.306401,1211.0
      19.959384,49.306531,1216.8
      19.959681,49.306672,1222.5
      19.959987,49.306826,1228.3
      19.960301,49.306992,1234.0
      19.960623,49.307169,1239.6
      19.960954,49.307359,1245.2
      19.961291,49.307560,1250.8
      19.961636,49.307774,1256.3
      19.961986,49.307999,1261.8
      19.962342,49.308235,1267.3
      19.962703,49.308481,1272.7
      19.963068,49.308737,1278.0
      19.963437,49.309003,1283.4
      19.963809,49.309278,1288.7
      19.964183,49.309560,1293.9
      19.964559,49.309850,1299.1
      19.964935,49.310146,1304.2
      19.965312,49.310447,1309.3
      19.965688,49.310753,1314.4
      19.966062,49.311062,1319.4
      19.966435,49.311373,1324.4
      19.966804,49.311686,1329.3
      19.967170,49.311999,1334.2
      19.967532,49.312311,1339.0
      19.967889,49.312622,1343.7
      19.968241,49.312929,1348.5
      19.968586,49.313233,1353.1
      19.968925,49.313531,1357.7
      19.969257,49.313824,1362.3
      19.969581,49.314111,1366.8
      19.969897,49.314390,1371.3
      19.970204,49.314660,1375.7
      19.970503,49.314921,1380.0
      19.970792,49.315173,1384.3
      19.971071,49.315414,1388.6
      19.971341,49.315645,1392.8
      19.971600,49.315864,1396.9
      19.971849,49.316072,1401.0
      19.972089,49.316268,1405.0
      19.972317,49.316452,1409.0
      19.972536,49.316623,1412.9
      19.972744,49.316783,1416.7
      19.972941,49.316931,1420.5
      19.973129,49.317067,1424.2
      19.973307,49.317191,1427.9
      19.973476,49.317304,1431.5
      19.973635,49.317407,1435.1
      19.973785,49.317500,1438.6
      19.973927,49.317583,1442.0
      19.974060,49.317657,1445.4
      19.974186,49.317724,1448.7
      19.974305,49.317783,1451.9
      19.974417,49.317835,1455.1
      19.974523,49.317882,1458.2
      19.974624,49.317925,1461.3
      19.974720,49.317964,1464.3
      19.974812,49.318001,1467.2
      19.974900,49.318036,1470.1
      19.974986,49.318071,1472.9
      19.975069,49.318106,1475.7
      19.975151,49.318144,1478.3
      19.975233,49.318184,1481.0
      19.975315,49.318227,1483.5
      19.975398,49.318276,1486.0
      19.975482,49.318330,1488.4
      19.975568,49.318390,1490.8
      19.975658,49.318458,1493.0
      19.975751,49.318534,1495.3
      19.975849,49.318620,1497.4
      19.975951,49.318715,1499.5
      19.976059,49.318820,1501.5
      19.976174,49.318936,1503.5
      19.976295,49.319063,1505.4
      19.976423,49.319201,1507.2
      19.976560,49.319352,1508.9
      19.976704,49.319514,1510.6
      19.976857,49.319689,1512.2
      19.977020,49.319875,1513.7
      19.977192,49.320074,1515.2
      19.977373,49.320284,1516.6
      19.977564,49.320506,1517.9
      19.977766,49.320739,1519.2
      19.977977,49.320983,1520.4
      19.978199,49.321237,1521.5
      19.978431,49.321501,1522.6
      19.978674,49.321773,1523.6
      19.978927,49.322054,1524.5
      19.979190,49.322341,1525.3
      19.979463,49.322636,1526.1
      19.979746,49.322936,1526.8
      19.980038,49.323241,1527.4
      19.980340,49.323549,1528.0
      19.980650,49.323860,1528.5
      19.980969,49.324172,1528.9
      19.981296,49.324485,1529.3
      19.981630,49.324798,1529.6
      19.981971,49.325109,1529.8
      19.982319,49.325417,1529.9
      19.982673,49.325722,1530.0
      19.983031,49.326022,1530.0
      19.983395,49.326316,1529.9
      19.983762,49.326604,1529.8
      19.984133,49.326885,1529.6
      19.984506,49.327158,1529.3
      19.984881,49.327422,1528.9
      19.985257,49.327676,1528.5
      19.985634,49.327920,1528.0
      19.986010,49.328153,1527.4
      19.986385,49.328375,1526.8
      19.986759,49.328586,1526.1
      19.987129,49.328785,1525.3
      19.987497,49.328972,1524.5
      19.987861,49.329147,1523.6
      19.988220,49.329310,1522.6
      19.988575,49.329460,1521.5
      19.988923,49.329599,1520.4
      19.989265,49.329727,1519.2
      19.989600,49.329843,1517.9
      19.989928,49.329948,1516.6
      19.990248,49.330043,1515.2
      19.990559,49.330129,1513.7
      19.990861,49.330205,1512.2
      19.991155,49.330274,1510.6
      19.991439,49.330334,1508.9
      19.991713,49.330389,1507.2
      19.991977,49.330437,1505.4
      19.992231,49.330481,1503.5
      19.992475,49.330521,1501.5
      19.992708,49.330558,1499.5
      19.992931,49.330594,1497.4
      19.993144,49.330628,1495.3
      19.993347,49.330664,1493.0
      19.993539,49.330700,1490.8
      19.993722,49.330739,1488.4
      19.993894,49.330782,1486.0
      19.994058,49.330829,1483.5
      19.994212,49.330881,1481.0
      19.994358,49.330940,1478.3
      19.994495,49.331006,1475.7
      19.994624,49.331080,1472.9
      19.994746,49.331163,1470.1
      19.994861,49.331256,1467.2
      19.994970,49.331358,1464.3
      19.995073,49.331471,1461.3
      19.995171,49.331595,1458.2
      19.995265,49.331731,1455.1
      19.995355,49.331878,1451.9
      19.995442,49.332038,1448.7
      19.995526,49.332209,1445.4
      19.995609,49.332393,1442.0
      19.995691,49.332588,1438.6
      19.995772,49.332796,1435.1
      19.995855,49.333015,1431.5
      19.995938,49.333245,1427.9
      19.996023,49.333486,1424.2
      19.996111,49.333737,1420.5
      19.996203,49.333998,1416.7
      19.996298,49.334269,1412.9
      19.996398,49.334547,1409.0
      19.996504,49.334833,1405.0
      19.996615,49.335126,1401.0
      19.996733,49.335425,1396.9
      19.996858,49.335728,1392.8
      19.996991,49.336036,1388.6
      19.997132,49.336346,1384.3
      19.997281,49.336658,1380.0
      19.997439,49.336971,1375.7
      19.997606,49.337284,1371.3
      19.997783,49.337595,1366.8
      19.997970,49.337904,1362.3
      19.998167,49.338210,1357.7
      19.998374,49.338512,1353.1
      19.998591,49.338808,1348.5
      19.998818,49.339097,1343.7
      19.999056,49.339380,1339.0
      19.999304,49.339655,1334.2
      19.999563,49.339921,1329.3
      19.999831,49.340178,1324.4
      20.000110,49.340425,1319.4
      20.000398,49.340661,1314.4
      20.000695,49.340886,1309.3
      20.001001,49.341099,1304.2
      20.001316,49.341301,1299.1
      20.001639,49.341491,1293.9
      20.001970,49.341669,1288.7
      20.002308,49.341835,1283.4
      20.002653,49.341989,1278.0
      20.003004,49.342131,1272.7
      20.003361,49.342261,1267.3
      20.003722,49.342380,1261.8
      20.004088,49.342489,1256.3
      20.004457,49.342586,1250.8
      20.004829,49.342674,1245.2
      20.005203,49.342753,1239.6
      20.005579,49.342823,1234.0
      20.005955,49.342886,1228.3
      20.006332,49.342942,1222.5
      20.006708,49.342992,1216.8
      20.007082,49.343036,1211.0
      20.007454,49.343077,1205.1
      20.007823,49.343115,1199.3
      20.008189,49.343151,1193.4
      20.008551,49.343186,1187.4
      20.008907,49.343221,1181.5
      20.009259,49.343257,1175.4
      20.009604,49.343295,1169.4
      20.009942,49.343337,1163.4
      20.010273,49.343383,1157.3
      20.010596,49.343434,1151.1
      20.010912,49.343491,1145.0
      20.011218,49.343555,1138.8
      20.011516,49.343627,1132.6
      20.011804,49.343708,1126.3
      20.012083,49.343797,1120.1
      20.012352,49.343897,1113.8
      20.012610,49.344008,1107.5
      20.012859,49.344129,1101.2
      20.013097,49.344261,1094.8
      20.013325,49.344406,1088.4
      20.013543,49.344562,1082.0
      20.013750,49.344730,1075.6
      20.013947,49.344911,1069.1
      20.014134,49.345103,1062.7
      20.014311,49.345308,1056.2
      20.014479,49.345524,1049.7
      20.014637,49.345751,1043.2
      20.014787,49.345989,1036.6
      20.014928,49.346238,1030.1
      20.015061,49.346497,1023.5
      20.015186,49.346765,1016.9
      20.015304,49.347041,1010.3
      20.015416,49.347326,1003.7
      20.015522,49.347617,997.1
      20.015622,49.347914,990.5
      20.015717,49.348216,983.8
      20.015809,49.348523,977.1
      20.015897,49.348833,970.5
      20.015983,49.349144,963.8
      20.016066,49.349457,957.1
      20.016148,49.349770,950.4
      20.016230,49.350082,943.7
      20.016312,49.350392,937.0
      20.016394,49.350698,930.3
      20.016479,49.351001,923.6
      20.016566,49.351299,916.9
      20.016655,49.351590,910.2
      20.016749,49.351875,903.4
      20.016847,49.352152,896.7
      20.016950,49.352420,890.0
    </coordinates></LineString></Placemark>
  </Document>
</kml>
