<?xml version="1.0" encoding="UTF-8"?>
<gpx version="1.1" creator="metravel-e2e" xmlns="http://www.topografix.com/GPX/1/1">
  <metadata><name>Dolina Koscieliska</name></metadata>
  <wpt lat="49.299200" lon="19.951700"><name>Parking Kiry</name></wpt>
  <wpt lat="49.352420" lon="20.016950"><name>Schronisko Ornak</name></wpt>
  <trk><name>Dolina Koscieliska</name><trkseg>
    <trkpt lat="49.299200" lon="19.951700"><ele>890.0</ele></trkpt>
    <trkpt lat="49.299513" lon="19.951924"><ele>896.7</ele></trkpt>
    <trkpt lat="49.299825" lon="19.952138"><ele>903.4</ele></trkpt>
    <trkpt lat="49.300134" lon="19.952341"><ele>910.2</ele></trkpt>
    <trkpt lat="49.300441" lon="19.952534"><ele>916.9</ele></trkpt>
    <trkpt lat="49.300744" lon="19.952717"><ele>923.6</ele></trkpt>
    <trkpt lat="49.301041" lon="19.952891"><ele>930.3</ele></trkpt>
    <trkpt lat="49.301332" lon="19.953055"><ele>937.0</ele></trkpt>
    <trkpt lat="49.301617" lon="19.953210"><ele>943.7</ele></trkpt>
    <trkpt lat="49.301893" lon="19.953356"><ele>950.4</ele></trkpt>
    <trkpt lat="49.302162" lon="19.953494"><ele>957.1</ele></trkpt>
    <trkpt lat="49.302421" lon="19.953624"><ele>963.8</ele></trkpt>
    <trkpt lat="49.302670" lon="19.953746"><ele>970.5</ele></trkpt>
    <trkpt lat="49.302908" lon="19.953862"><ele>977.1</ele></trkpt>
    <trkpt lat="49.303136" lon="19.953971"><ele>983.8</ele></trkpt>
    <trkpt lat="49.303352" lon="19.954075"><ele>990.5</ele></trkpt>
    <trkpt lat="49.303557" lon="19.954173"><ele>997.1</ele></trkpt>
    <trkpt lat="49.303750" lon="19.954267"><ele>1003.7</ele></trkpt>
    <trkpt lat="49.303930" lon="19.954358"><ele>1010.3</ele></trkpt>
    <trkpt lat="49.304099" lon="19.954445"><ele>1016.9</ele></trkpt>
    <trkpt lat="49.304256" lon="19.954529"><ele>1023.5</ele></trkpt>
    <trkpt lat="49.304400" lon="19.954612"><ele>1030.1</ele></trkpt>
    <trkpt lat="49.304533" lon="19.954694"><ele>1036.6</ele></trkpt>
    <trkpt lat="49.304655" lon="19.954776"><ele>1043.2</ele></trkpt>
    <trkpt lat="49.304765" lon="19.954858"><ele>1049.7</ele></trkpt>
    <trkpt lat="49.304866" lon="19.954941"><ele>1056.2</ele></trkpt>
    <trkpt lat="49.304956" lon="19.955026"><ele>1062.7</ele></trkpt>
    <trkpt lat="49.305036" lon="19.955114"><ele>1069.1</ele></trkpt>
    <trkpt lat="49.305109" lon="19.955205"><ele>1075.6</ele></trkpt>
    <trkpt lat="49.305173" lon="19.955300"><ele>1082.0</ele></trkpt>
    <trkpt lat="49.305230" lon="19.955400"><ele>1088.4</ele></trkpt>
    <trkpt lat="49.305281" lon="19.955505"><ele>1094.8</ele></trkpt>
    <trkpt lat="49.305327" lon="19.955616"><ele>1101.2</ele></trkpt>
    <trkpt lat="49.305369" lon="19.955733"><ele>1107.5</ele></trkpt>
    <trkpt lat="49.305407" lon="19.955858"><ele>1113.8</ele></trkpt>
    <trkpt lat="49.305444" lon="19.955990"><ele>1120.1</ele></trkpt>
    <trkpt lat="49.305479" lon="19.956130"><ele>1126.3</ele></trkpt>
    <trkpt lat="49.305514" lon="19.956279"><ele>1132.6</ele></trkpt>
    <trkpt lat="49.305549" lon="19.956436"><ele>1138.8</ele></trkpt>
    <trkpt lat="49.305587" lon="19.956603"><ele>1145.0</ele></trkpt>
    <trkpt lat="49.305628" lon="19.956779"><ele>1151.1</ele></trkpt>
    <trkpt lat="49.305673" lon="19.956965"><ele>1157.3</ele></trkpt>
    <trkpt lat="49.305722" lon="19.957161"><ele>1163.4</ele></trkpt>
    <trkpt lat="49.305778" lon="19.957367"><ele>1169.4</ele></trkpt>
    <trkpt lat="49.305841" lon="19.957583"><ele>1175.4</ele></trkpt>
    <trkpt lat="49.305911" lon="19.957810"><ele>1181.5</ele></trkpt>
    <trkpt lat="49.305989" lon="19.958047"><ele>1187.4</ele></trkpt>
    <trkpt lat="49.306077" lon="19.958294"><ele>1193.4</ele></trkpt>
    <trkpt lat="49.306174" lon="19.958552"><ele>1199.3</ele></trkpt>
    <trkpt lat="49.306282" lon="19.958819"><ele>1205.1</ele></trkpt>
    <trkpt lat="49.306401" lon="19.959097"><ele>1211.0</ele></trkpt>
    <trkpt lat="49.306531" lon="19.959384"><ele>1216.8</ele></trkpt>
    <trkpt lat="49.306672" lon="19.959681"><ele>1222.5</ele></trkpt>
    <trkpt lat="49.306826" lon="19.959987"><ele>1228.3</ele></trkpt>
    <trkpt lat="49.306992" lon="19.960301"><ele>1234.0</ele></trkpt>
    <trkpt lat="49.307169" lon="19.960623"><ele>1239.6</ele></trkpt>
    <trkpt lat="49.307359" lon="19.960954"><ele>1245.2</ele></trkpt>
    <trkpt lat="49.307560" lon="19.961291"><ele>1250.8</ele></trkpt>
    <trkpt lat="49.307774" lon="19.961636"><ele>1256.3</ele></trkpt>
    <trkpt lat="49.307999" lon="19.961986"><ele>1261.8</ele></trkpt>
    <trkpt lat="49.308235" lon="19.962342"><ele>1267.3</ele></trkpt>
    <trkpt lat="49.308481" lon="19.962703"><ele>1272.7</ele></trkpt>
    <trkpt lat="49.308737" lon="19.963068"><ele>1278.0</ele></trkpt>
    <trkpt lat="49.309003" lon="19.963437"><ele>1283.4</ele></trkpt>
    <trkpt lat="49.309278" lon="19.963809"><ele>1288.7</ele></trkpt>
    <trkpt lat="49.309560" lon="19.964183"><ele>1293.9</ele></trkpt>
    <trkpt lat="49.309850" lon="19.964559"><ele>1299.1</ele></trkpt>
    <trkpt lat="49.310146" lon="19.964935"><ele>1304.2</ele></trkpt>
    <trkpt lat="49.310447" lon="19.965312"><ele>1309.3</ele></trkpt>
    <trkpt lat="49.310753" lon="19.965688"><ele>1314.4</ele></trkpt>
    <trkpt lat="49.311062" lon="19.966062"><ele>1319.4</ele></trkpt>
    <trkpt lat="49.311373" lon="19.966435"><ele>1324.4</ele></trkpt>
    <trkpt lat="49.311686" lon="19.966804"><ele>1329.3</ele></trkpt>
    <trkpt lat="49.311999" lon="19.967170"><ele>1334.2</ele></trkpt>
    <trkpt lat="49.312311" lon="19.967532"><ele>1339.0</ele></trkpt>
    <trkpt lat="49.312622" lon="19.967889"><ele>1343.7</ele></trkpt>
    <trkpt lat="49.312929" lon="19.968241"><ele>1348.5</ele></trkpt>
    <trkpt lat="49.313233" lon="19.968586"><ele>1353.1</ele></trkpt>
    <trkpt lat="49.313531" lon="19.968925"><ele>1357.7</ele></trkpt>
    <trkpt lat="49.313824" lon="19.969257"><ele>1362.3</ele></trkpt>
    <trkpt lat="49.314111" lon="19.969581"><ele>1366.8</ele></trkpt>
    <trkpt lat="49.314390" lon="19.969897"><ele>1371.3</ele></trkpt>
    <trkpt lat="49.314660" lon="19.970204"><ele>1375.7</ele></trkpt>
    <trkpt lat="49.314921" lon="19.970503"><ele>1380.0</ele></trkpt>
    <trkpt lat="49.315173" lon="19.970792"><ele>1384.3</ele></trkpt>
    <trkpt lat="49.315414" lon="19.971071"><ele>1388.6</ele></trkpt>
    <trkpt lat="49.315645" lon="19.971341"><ele>1392.8</ele></trkpt>
    <trkpt lat="49.315864" lon="19.971600"><ele>1396.9</ele></trkpt>
    <trkpt lat="49.316072" lon="19.971849"><ele>1401.0</ele></trkpt>
    <trkpt lat="49.316268" lon="19.972089"><ele>1405.0</ele></trkpt>
    <trkpt lat="49.316452" lon="19.972317"><ele>1409.0</ele></trkpt>
    <trkpt lat="49.316623" lon="19.972536"><ele>1412.9</ele></trkpt>
    <trkpt lat="49.316783" lon="19.972744"><ele>1416.7</ele></trkpt>
    <trkpt lat="49.316931" lon="19.972941"><ele>1420.5</ele></trkpt>
    <trkpt lat="49.317067" lon="19.973129"><ele>1424.2</ele></trkpt>
    <trkpt lat="49.317191" lon="19.973307"><ele>1427.9</ele></trkpt>
    <trkpt lat="49.317304" lon="19.973476"><ele>1431.5</ele></trkpt>
    <trkpt lat="49.317407" lon="19.973635"><ele>1435.1</ele></trkpt>
    <trkpt lat="49.317500" lon="19.973785"><ele>1438.6</ele></trkpt>
    <trkpt lat="49.317583" lon="19.973927"><ele>1442.0</ele></trkpt>
    <trkpt lat="49.317657" lon="19.974060"><ele>1445.4</ele></trkpt>
    <trkpt lat="49.317724" lon="19.974186"><ele>1448.7</ele></trkpt>
    <trkpt lat="49.317783" lon="19.974305"><ele>1451.9</ele></trkpt>
    <trkpt lat="49.317835" lon="19.974417"><ele>1455.1</ele></trkpt>
    <trkpt lat="49.317882" lon="19.974523"><ele>1458.2</ele></trkpt>
    <trkpt lat="49.317925" lon="19.974624"><ele>1461.3</ele></trkpt>
    <trkpt lat="49.317964" lon="19.974720"><ele>1464.3</ele></trkpt>
    <trkpt lat="49.318001" lon="19.974812"><ele>1467.2</ele></trkpt>
    <trkpt lat="49.318036" lon="19.974900"><ele>1470.1</ele></trkpt>
    <trkpt lat="49.318071" lon="19.974986"><ele>1472.9</ele></trkpt>
    <trkpt lat="49.318106" lon="19.975069"><ele>1475.7</ele></trkpt>
    <trkpt lat="49.318144" lon="19.975151"><ele>1478.3</ele></trkpt>
    <trkpt lat="49.318184" lon="19.975233"><ele>1481.0</ele></trkpt>
    <trkpt lat="49.318227" lon="19.975315"><ele>1483.5</ele></trkpt>
    <trkpt lat="49.318276" lon="19.975398"><ele>1486.0</ele></trkpt>
    <trkpt lat="49.318330" lon="19.975482"><ele>1488.4</ele></trkpt>
    <trkpt lat="49.318390" lon="19.975568"><ele>1490.8</ele></trkpt>
    <trkpt lat="49.318458" lon="19.975658"><ele>1493.0</ele></trkpt>
    <trkpt lat="49.318534" lon="19.975751"><ele>1495.3</ele></trkpt>
    <trkpt lat="49.318620" lon="19.975849"><ele>1497.4</ele></trkpt>
    <trkpt lat="49.318715" lon="19.975951"><ele>1499.5</ele></trkpt>
    <trkpt lat="49.318820" lon="19.976059"><ele>1501.5</ele></trkpt>
    <trkpt lat="49.318936" lon="19.976174"><ele>1503.5</ele></trkpt>
    <trkpt lat="49.319063" lon="19.976295"><ele>1505.4</ele></trkpt>
    <trkpt lat="49.319201" lon="19.976423"><ele>1507.2</ele></trkpt>
    <trkpt lat="49.319352" lon="19.976560"><ele>1508.9</ele></trkpt>
    <trkpt lat="49.319514" lon="19.976704"><ele>1510.6</ele></trkpt>
    <trkpt lat="49.319689" lon="19.976857"><ele>1512.2</ele></trkpt>
    <trkpt lat="49.319875" lon="19.977020"><ele>1513.7</ele></trkpt>
    <trkpt lat="49.320074" lon="19.977192"><ele>1515.2</ele></trkpt>
    <trkpt lat="49.320284" lon="19.977373"><ele>1516.6</ele></trkpt>
    <trkpt lat="49.320506" lon="19.977564"><ele>1517.9</ele></trkpt>
    <trkpt lat="49.320739" lon="19.977766"><ele>1519.2</ele></trkpt>
    <trkpt lat="49.320983" lon="19.977977"><ele>1520.4</ele></trkpt>
    <trkpt lat="49.321237" lon="19.978199"><ele>1521.5</ele></trkpt>
    <trkpt lat="49.321501" lon="19.978431"><ele>1522.6</ele></trkpt>
    <trkpt lat="49.321773" lon="19.978674"><ele>1523.6</ele></trkpt>
    <trkpt lat="49.322054" lon="19.978927"><ele>1524.5</ele></trkpt>
    <trkpt lat="49.322341" lon="19.979190"><ele>1525.3</ele></trkpt>
    <trkpt lat="49.322636" lon="19.979463"><ele>1526.1</ele></trkpt>
    <trkpt lat="49.322936" lon="19.979746"><ele>1526.8</ele></trkpt>
    <trkpt lat="49.323241" lon="19.980038"><ele>1527.4</ele></trkpt>
    <trkpt lat="49.323549" lon="19.980340"><ele>1528.0</ele></trkpt>
    <trkpt lat="49.323860" lon="19.980650"><ele>1528.5</ele></trkpt>
    <trkpt lat="49.324172" lon="19.980969"><ele>1528.9</ele></trkpt>
    <trkpt lat="49.324485" lon="19.981296"><ele>1529.3</ele></trkpt>
    <trkpt lat="49.324798" lon="19.981630"><ele>1529.6</ele></trkpt>
    <trkpt lat="49.325109" lon="19.981971"><ele>1529.8</ele></trkpt>
    <trkpt lat="49.325417" lon="19.982319"><ele>1529.9</ele></trkpt>
    <trkpt lat="49.325722" lon="19.982673"><ele>1530.0</ele></trkpt>
    <trkpt lat="49.326022" lon="19.983031"><ele>1530.0</ele></trkpt>
    <trkpt lat="49.326316" lon="19.983395"><ele>1529.9</ele></trkpt>
    <trkpt lat="49.326604" lon="19.983762"><ele>1529.8</ele></trkpt>
    <trkpt lat="49.326885" lon="19.984133"><ele>1529.6</ele></trkpt>
    <trkpt lat="49.327158" lon="19.984506"><ele>1529.3</ele></trkpt>
    <trkpt lat="49.327422" lon="19.984881"><ele>1528.9</ele></trkpt>
    <trkpt lat="49.327676" lon="19.985257"><ele>1528.5</ele></trkpt>
    <trkpt lat="49.327920" lon="19.985634"><ele>1528.0</ele></trkpt>
    <trkpt lat="49.328153" lon="19.986010"><ele>1527.4</ele></trkpt>
    <trkpt lat="49.328375" lon="19.986385"><ele>1526.8</ele></trkpt>
    <trkpt lat="49.328586" lon="19.986759"><ele>1526.1</ele></trkpt>
    <trkpt lat="49.328785" lon="19.987129"><ele>1525.3</ele></trkpt>
    <trkpt lat="49.328972" lon="19.987497"><ele>1524.5</ele></trkpt>
    <trkpt lat="49.329147" lon="19.987861"><ele>1523.6</ele></trkpt>
    <trkpt lat="49.329310" lon="19.988220"><ele>1522.6</ele></trkpt>
    <trkpt lat="49.329460" lon="19.988575"><ele>1521.5</ele></trkpt>
    <trkpt lat="49.329599" lon="19.988923"><ele>1520.4</ele></trkpt>
    <trkpt lat="49.329727" lon="19.989265"><ele>1519.2</ele></trkpt>
    <trkpt lat="49.329843" lon="19.989600"><ele>1517.9</ele></trkpt>
    <trkpt lat="49.329948" lon="19.989928"><ele>1516.6</ele></trkpt>
    <trkpt lat="49.330043" lon="19.990248"><ele>1515.2</ele></trkpt>
    <trkpt lat="49.330129" lon="19.990559"><ele>1513.7</ele></trkpt>
    <trkpt lat="49.330205" lon="19.990861"><ele>1512.2</ele></trkpt>
    <trkpt lat="49.330274" lon="19.991155"><ele>1510.6</ele></trkpt>
    <trkpt lat="49.330334" lon="19.991439"><ele>1508.9</ele></trkpt>
    <trkpt lat="49.330389" lon="19.991713"><ele>1507.2</ele></trkpt>
    <trkpt lat="49.330437" lon="19.991977"><ele>1505.4</ele></trkpt>
    <trkpt lat="49.330481" lon="19.992231"><ele>1503.5</ele></trkpt>
    <trkpt lat="49.330521" lon="19.992475"><ele>1501.5</ele></trkpt>
    <trkpt lat="49.330558" lon="19.992708"><ele>1499.5</ele></trkpt>
    <trkpt lat="49.330594" lon="19.992931"><ele>1497.4</ele></trkpt>
    <trkpt lat="49.330628" lon="19.993144"><ele>1495.3</ele></trkpt>
    <trkpt lat="49.330664" lon="19.993347"><ele>1493.0</ele></trkpt>
    <trkpt lat="49.330700" lon="19.993539"><ele>1490.8</ele></trkpt>
    <trkpt lat="49.330739" lon="19.993722"><ele>1488.4</ele></trkpt>
    <trkpt lat="49.330782" lon="19.993894"><ele>1486.0</ele></trkpt>
    <trkpt lat="49.330829" lon="19.994058"><ele>1483.5</ele></trkpt>
    <trkpt lat="49.330881" lon="19.994212"><ele>1481.0</ele></trkpt>
    <trkpt lat="49.330940" lon="19.994358"><ele>1478.3</ele></trkpt>
    <trkpt lat="49.331006" lon="19.994495"><ele>1475.7</ele></trkpt>
    <trkpt lat="49.331080" lon="19.994624"><ele>1472.9</ele></trkpt>
    <trkpt lat="49.331163" lon="19.994746"><ele>1470.1</ele></trkpt>
    <trkpt lat="49.331256" lon="19.994861"><ele>1467.2</ele></trkpt>
    <trkpt lat="49.331358" lon="19.994970"><ele>1464.3</ele></trkpt>
    <trkpt lat="49.331471" lon="19.995073"><ele>1461.3</ele></trkpt>
    <trkpt lat="49.331595" lon="19.995171"><ele>1458.2</ele></trkpt>
    <trkpt lat="49.331731" lon="19.995265"><ele>1455.1</ele></trkpt>
    <trkpt lat="49.331878" lon="19.995355"><ele>1451.9</ele></trkpt>
    <trkpt lat="49.332038" lon="19.995442"><ele>1448.7</ele></trkpt>
    <trkpt lat="49.332209" lon="19.995526"><ele>1445.4</ele></trkpt>
    <trkpt lat="49.332393" lon="19.995609"><ele>1442.0</ele></trkpt>
    <trkpt lat="49.332588" lon="19.995691"><ele>1438.6</ele></trkpt>
    <trkpt lat="49.332796" lon="19.995772"><ele>1435.1</ele></trkpt>
    <trkpt lat="49.333015" lon="19.995855"><ele>1431.5</ele></trkpt>
    <trkpt lat="49.333245" lon="19.995938"><ele>1427.9</ele></trkpt>
    <trkpt lat="49.333486" lon="19.996023"><ele>1424.2</ele></trkpt>
    <trkpt lat="49.333737" lon="19.996111"><ele>1420.5</ele></trkpt>
    <trkpt lat="49.333998" lon="19.996203"><ele>1416.7</ele></trkpt>
    <trkpt lat="49.334269" lon="19.996298"><ele>1412.9</ele></trkpt>
    <trkpt lat="49.334547" lon="19.996398"><ele>1409.0</ele></trkpt>
    <trkpt lat="49.334833" lon="19.996504"><ele>1405.0</ele></trkpt>
    <trkpt lat="49.335126" lon="19.996615"><ele>1401.0</ele></trkpt>
    <trkpt lat="49.335425" lon="19.996733"><ele>1396.9</ele></trkpt>
    <trkpt lat="49.335728" lon="19.996858"><ele>1392.8</ele></trkpt>
    <trkpt lat="49.336036" lon="19.996991"><ele>1388.6</ele></trkpt>
    <trkpt lat="49.336346" lon="19.997132"><ele>1384.3</ele></trkpt>
    <trkpt lat="49.336658" lon="19.997281"><ele>1380.0</ele></trkpt>
    <trkpt lat="49.336971" lon="19.997439"><ele>1375.7</ele></trkpt>
    <trkpt lat="49.337284" lon="19.997606"><ele>1371.3</ele></trkpt>
    <trkpt lat="49.337595" lon="19.997783"><ele>1366.8</ele></trkpt>
    <trkpt lat="49.337904" lon="19.997970"><ele>1362.3</ele></trkpt>
    <trkpt lat="49.338210" lon="19.998167"><ele>1357.7</ele></trkpt>
    <trkpt lat="49.338512" lon="19.998374"><ele>1353.1</ele></trkpt>
    <trkpt lat="49.338808" lon="19.998591"><ele>1348.5</ele></trkpt>
    <trkpt lat="49.339097" lon="19.998818"><ele>1343.7</ele></trkpt>
    <trkpt lat="49.339380" lon="19.999056"><ele>1339.0</ele></trkpt>
    <trkpt lat="49.339655" lon="19.999304"><ele>1334.2</ele></trkpt>
    <trkpt lat="49.339921" lon="19.999563"><ele>1329.3</ele></trkpt>
    <trkpt lat="49.340178" lon="19.999831"><ele>1324.4</ele></trkpt>
    <trkpt lat="49.340425" lon="20.000110"><ele>1319.4</ele></trkpt>
    <trkpt lat="49.340661" lon="20.000398"><ele>1314.4</ele></trkpt>
    <trkpt lat="49.340886" lon="20.000695"><ele>1309.3</ele></trkpt>
    <trkpt lat="49.341099" lon="20.001001"><ele>1304.2</ele></trkpt>
    <trkpt lat="49.341301" lon="20.001316"><ele>1299.1</ele></trkpt>
    <trkpt lat="49.341491" lon="20.001639"><ele>1293.9</ele></trkpt>
    <trkpt lat="49.341669" lon="20.001970"><ele>1288.7</ele></trkpt>
    <trkpt lat="49.341835" lon="20.002308"><ele>1283.4</ele></trkpt>
    <trkpt lat="49.341989" lon="20.002653"><ele>1278.0</ele></trkpt>
    <trkpt lat="49.342131" lon="20.003004"><ele>1272.7</ele></trkpt>
    <trkpt lat="49.342261" lon="20.003361"><ele>1267.3</ele></trkpt>
    <trkpt lat="49.342380" lon="20.003722"><ele>1261.8</ele></trkpt>
    <trkpt lat="49.342489" lon="20.004088"><ele>1256.3</ele></trkpt>
    <trkpt lat="49.342586" lon="20.004457"><ele>1250.8</ele></trkpt>
    <trkpt lat="49.342674" lon="20.004829"><ele>1245.2</ele></trkpt>
    <trkpt lat="49.342753" lon="20.005203"><ele>1239.6</ele></trkpt>
    <trkpt lat="49.342823" lon="20.005579"><ele>1234.0</ele></trkpt>
    <trkpt lat="49.342886" lon="20.005955"><ele>1228.3</ele></trkpt>
    <trkpt lat="49.342942" lon="20.006332"><ele>1222.5</ele></trkpt>
    <trkpt lat="49.342992" lon="20.006708"><ele>1216.8</ele></trkpt>
    <trkpt lat="49.343036" lon="20.007082"><ele>1211.0</ele></trkpt>
    <trkpt lat="49.343077" lon="20.007454"><ele>1205.1</ele></trkpt>
    <trkpt lat="49.343115" lon="20.007823"><ele>1199.3</ele></trkpt>
    <trkpt lat="49.343151" lon="20.008189"><ele>1193.4</ele></trkpt>
    <trkpt lat="49.343186" lon="20.008551"><ele>1187.4</ele></trkpt>
    <trkpt lat="49.343221" lon="20.008907"><ele>1181.5</ele></trkpt>
    <trkpt lat="49.343257" lon="20.009259"><ele>1175.4</ele></trkpt>
    <trkpt lat="49.343295" lon="20.009604"><ele>1169.4</ele></trkpt>
    <trkpt lat="49.343337" lon="20.009942"><ele>1163.4</ele></trkpt>
    <trkpt lat="49.343383" lon="20.010273"><ele>1157.3</ele></trkpt>
    <trkpt lat="49.343434" lon="20.010596"><ele>1151.1</ele></trkpt>
    <trkpt lat="49.343491" lon="20.010912"><ele>1145.0</ele></trkpt>
    <trkpt lat="49.343555" lon="20.011218"><ele>1138.8</ele></trkpt>
    <trkpt lat="49.343627" lon="20.011516"><ele>1132.6</ele></trkpt>
    <trkpt lat="49.343708" lon="20.011804"><ele>1126.3</ele></trkpt>
    <trkpt lat="49.343797" lon="20.012083"><ele>1120.1</ele></trkpt>
    <trkpt lat="49.343897" lon="20.012352"><ele>1113.8</ele></trkpt>
    <trkpt lat="49.344008" lon="20.012610"><ele>1107.5</ele></trkpt>
    <trkpt lat="49.344129" lon="20.012859"><ele>1101.2</ele></trkpt>
    <trkpt lat="49.344261" lon="20.013097"><ele>1094.8</ele></trkpt>
    <trkpt lat="49.344406" lon="20.013325"><ele>1088.4</ele></trkpt>
    <trkpt lat="49.344562" lon="20.013543"><ele>1082.0</ele></trkpt>
    <trkpt lat="49.344730" lon="20.013750"><ele>1075.6</ele></trkpt>
    <trkpt lat="49.344911" lon="20.013947"><ele>1069.1</ele></trkpt>
    <trkpt lat="49.345103" lon="20.014134"><ele>1062.7</ele></trkpt>
    <trkpt lat="49.345308" lon="20.014311"><ele>1056.2</ele></trkpt>
    <trkpt lat="49.345524" lon="20.014479"><ele>1049.7</ele></trkpt>
    <trkpt lat="49.345751" lon="20.014637"><ele>1043.2</ele></trkpt>
    <trkpt lat="49.345989" lon="20.014787"><ele>1036.6</ele></trkpt>
    <trkpt lat="49.346238" lon="20.014928"><ele>1030.1</ele></trkpt>
    <trkpt lat="49.346497" lon="20.015061"><ele>1023.5</ele></trkpt>
    <trkpt lat="49.346765" lon="20.015186"><ele>1016.9</ele></trkpt>
    <trkpt lat="49.347041" lon="20.015304"><ele>1010.3</ele></trkpt>
    <trkpt lat="49.347326" lon="20.015416"><ele>1003.7</ele></trkpt>
    <trkpt lat="49.347617" lon="20.015522"><ele>997.1</ele></trkpt>
    <trkpt lat="49.347914" lon="20.015622"><ele>990.5</ele></trkpt>
    <trkpt lat="49.348216" lon="20.015717"><ele>983.8</ele></trkpt>
    <trkpt lat="49.348523" lon="20.015809"><ele>977.1</ele></trkpt>
    <trkpt lat="49.348833" lon="20.015897"><ele>970.5</ele></trkpt>
    <trkpt lat="49.349144" lon="20.015983"><ele>963.8</ele></trkpt>
    <trkpt lat="49.349457" lon="20.016066"><ele>957.1</ele></trkpt>
    <trkpt lat="49.349770" lon="20.016148"><ele>950.4</ele></trkpt>
    <trkpt lat="49.350082" lon="20.016230"><ele>943.7</ele></trkpt>
    <trkpt lat="49.350392" lon="20.016312"><ele>937.0</ele></trkpt>
    <trkpt lat="49.350698" lon="20.016394"><ele>930.3</ele></trkpt>
    <trkpt lat="49.351001" lon="20.016479"><ele>923.6</ele></trkpt>
    <trkpt lat="49.351299" lon="20.016566"><ele>916.9</ele></trkpt>
    <trkpt lat="49.351590" lon="20.016655"><ele>910.2</ele></trkpt>
    <trkpt lat="49.351875" lon="20.016749"><ele>903.4</ele></trkpt>
    <trkpt lat="49.352152" lon="20.016847"><ele>896.7</ele></trkpt>
    <trkpt lat="49.352420" lon="20.016950"><ele>890.0</ele></trkpt>
  </trkseg></trk>
</gpx>
